[{"OBJECT_NAME":"IRIDIUM 168","OBJECT_ID":"2019-002C","EPOCH":"2026-03-09T22:03:03.105216","MEAN_MOTION":14.34216679,"ECCENTRICITY":0.00021737,"INCLINATION":86.3975,"RA_OF_ASC_NODE":35.1435,"ARG_OF_PERICENTER":86.4602,"MEAN_ANOMALY":273.6843,"EPHEMERIS_TYPE":0,"CLASSIFICATION_TYPE":"U","NORAD_CAT_ID":43924,"ELEMENT_SET_NO":999,"REV_AT_EPOCH":37474,"BSTAR":0.00012475836,"MEAN_MOTION_DOT":3.69e-6,"MEAN_MOTION_DDOT":0},{"OBJECT_NAME":"THORAD AGENA D DEB","OBJECT_ID":"1970-025LA","EPOCH":"2026-03-09T09:19:11.127072","MEAN_MOTION":14.46548299,"ECCENTRICITY":0.00691939,"INCLINATION":100.0004,"RA_OF_ASC_NODE":234.3383,"ARG_OF_PERICENTER":299.2278,"MEAN_ANOMALY":60.2002,"EPHEMERIS_TYPE":0,"CLASSIFICATION_TYPE":"U","NORAD_CAT_ID":5422,"ELEMENT_SET_NO":999,"REV_AT_EPOCH":84255,"BSTAR":0.00217902,"MEAN_MOTION_DOT":8.036e-5,"MEAN_MOTION_DDOT":0}]
